[{"OBJECT_NAME":"STARLINK-31430","OBJECT_ID":"2024-062B","EPOCH":"2026-03-09T21:26:03.255936","MEAN_MOTION":15.30197499,"ECCENTRICITY":0.00010307,"INCLINATION":53.1582,"RA_OF_ASC_NODE":257.4825,"ARG_OF_PERICENTER":130.7995,"MEAN_ANOMALY":229.3095,"EPHEMERIS_TYPE":0,"CLASSIFICATION_TYPE":"U","NORAD_CAT_ID":59375,"ELEMENT_SET_NO":999,"REV_AT_EPOCH":10966,"BSTAR":-7.095733e-5,"MEAN_MOTION_DOT":-2.46e-5,"MEAN_MOTION_DDOT":0},{"OBJECT_NAME":"PUCP-SAT 1","OBJECT_ID":"2013-066AC","EPOCH":"2026-03-09T22:02:13.763904","MEAN_MOTION":15.29426022,"ECCENTRICITY":0.00136836,"INCLINATION":97.5787,"RA_OF_ASC_NODE":61.0032,"ARG_OF_PERICENTER":300.1183,"MEAN_ANOMALY":59.87,"EPHEMERIS_TYPE":0,"CLASSIFICATION_TYPE":"U","NORAD_CAT_ID":39442,"ELEMENT_SET_NO":999,"REV_AT_EPOCH":66907,"BSTAR":0.00088755185,"MEAN_MOTION_DOT":0.00025373,"MEAN_MOTION_DDOT":0}]
